## NOTE-

The "/" above and in the following descriptions are for separation purposes in this publication and do not appear in the actual TAFs.

TAF KORD 051130Z 0512/0618 14008KT 5SM BR BKN030 TEMPO 0513/0516 1 1/2SM BR FM051600 16010KT P6SM SKC FM052300 20013G20KT 4SM SHRA OVC020 PROB40 0600/0606 2SM TSRA OVC008CB BECMG 0606/0608 21015KT P6SM NSW SCT040

TAF format observed in the above example:

TAF \(=\) type of report

KORD \(=\) ICAO station identifier

051130Z \(=\) date and time of origin (issuance time)

0512/0618 \(=\) valid period date and times