. moderate snow BLSN FG . . . . . . . . . . . . . . . . . . .visibility obscured by blowing snow and fog VV008 . . . . . . . . . . . . . . . . . . . indefinite ceiling eight hundred 00/M03 . . . . . . . . . . . . . . . . . . . temperature zero, dew point minus three A2991 . . . . . . . . . . . . . . . . . . . altimeter two niner niner one RMK . . . . . . . . . . . . . . . . . . . remarks RAE42 . . . . . . . . . . . . . . . . . . . rain ended at four two SNB42 . . . . . . . . . . . . . . . . . . snow began at four two

METAR KSF0 041453Z AUTO VRB02KT 3SM BR CLR 15/12 A3012 RMK AO2

METAR . . . . . . . . .