# Key to Aerodrome Forecast (TAF) and Aviation Routine Weather Report (METAR) (Front)

**Key to Aerodrome Forecast (TAF) and Aviation**

**Routine Weather Report (METAR) (Front)**

**TAF** KPIT 091730Z 0918/1024 15005KT 5SM HZ FEW020 WS010/31022KT

FM091930 30015G25KT 3SM SHRA OVC015

TEMPO 0920/0922 1/2SM +TSRA OVC008CB

FM100100 27008KT 5SM SHRA BKN020 OVC040

PROB30 1004/1007 1SM -RA BR

FM101015 18005KT 6SM -SHRA OVC020

BECMG 1013/1015 P6SM NSW SKC