## Examples of METAR reports and explanation:

METAR KBNA 281250Z 33018KT 290V360 1/2SM R31/2700FT SN BLSN FG VV008 00/M03 A2991 RMK RAE42SNB42

METAR . . . . . . . . . . . . . . . . . . . . aviation routine weather report KBNA . . . . . . . . . . . . . . . . . . . Nashville, TN 281250Z . . . . . . . . . . . . . . . . . . . date \(28^{\mathrm{th}}\) , time 1250 UTC (no modifier) . . . . . . . . . . . . . . . . . . . This is a manually generated report, due to the absence of "AUTO" and "AO1 or AO2" in remarks 33018KT . . . . . . . . . . . . . . . . . . . wind three