3SM . . . . . . . . . . . . . . . . . . visibility three BR . . . . . . . . . . . . . . . . . . . visibilty obscured by mist CLR . . . . . . . . . . . . . . . . . . . no clouds below one two thousand 15/12 . . . . . . . . . . . . . . . . . . .temperature one five, dew point one two A3012 . . . . . . . . altimeter three zero one two RMK . . . . . . . . remarks AO2 . . . . . . . . this automated station has a weather discriminator (for precipitation)

SPECI KCVG 152224Z 28024G36KT 3/4SM +TSRA BKN008 OVC020CB 28/23 A3000 RMK TSRA B24 TS W MOV E

SPECI . . . . . . . (nonroutine) aviation special weather report KCVG . . . . . . . Cincinnati, OH