0 1004/1007 1SM -RA BR

FM101015 18005KT 6SM -SHRA OVC020

BECMG 1013/1015 P6SM NSW SKC

**NOTE**: Users are cautioned to confirm DATE and TIME of the TAF. For example FM100000 is 0000Z on the 10th. Do not confuse with 1000Z!

**METAR** KPIT 091955Z COR 22015G25KT 3/4SM R28L/2600FT TSRA OVC010CB 18/16 A2992 RMK

SLP045 T01820159

<table><tr><td>Forecast</td><td>Explanation</td><td>Report</td></tr><tr><td>TAF</td><td>Message type: TAF-routine or TAF AMD-amended forecast, METAR-hourly, SPECI-special or TESTM-non-commission